ORBCOMM-X               
1 21576U 91050C   25083.93371727  .00001262  00000+0  38849-3 0  9998
2 21576  98.3510 152.2241 0004846  85.7084 274.4660 14.43161898770187
ORBCOMM FM01            
1 23545U 95017A   25084.52461806  .00015800  00000+0  16977-2 0  9997
2 23545  69.9630 282.5681 0001058 162.9083 197.2106 14.88622033600053
ORBCOMM FM02            
1 23546U 95017B   25084.03765515  .00021911  00000+0  23196-2 0  9999
2 23546  69.9657 303.3929 0002056 123.4338 236.7013 14.89125756599621
ORBCOMM FM08            
1 25112U 97084A   25083.31902475  .00005606  00000+0  16177-2 0  9998
2 25112  45.0135  55.1622 0005134 196.4794 163.5891 14.45391031429093
ORBCOMM FM10            
1 25113U 97084B   25084.60116049  .00005218  00000+0  15150-2 0  9995
2 25113  45.0149  51.2470 0002757 163.3812 196.7130 14.45194343429438
ORBCOMM FM11            
1 25114U 97084C   25084.86792154  .00004579  00000+0  13414-2 0  9991
2 25114  45.0131  50.4510 0003582 163.9228 196.1738 14.44949179429454
ORBCOMM FM12            
1 25115U 97084D   25084.90081479  .00004659  00000+0  13632-2 0  9999
2 25115  45.0140  50.0525 0002589 164.7424 195.3506 14.44976411429464
ORBCOMM FM09            
1 25116U 97084E   25084.02735209  .00005336  00000+0  15590-2 0  9998
2 25116  45.0143  55.0919 0003702 136.9821 223.1320 14.44858099429308
